AMC-18                  
1 29644U 06054B   22091.50050049 -.00000229  00000+0  00000+0 0  9999
2 29644   0.0382  75.5742 0002449 298.4848 272.9453  1.00271291 56121
INSAT-4B                
1 30793U 07007A   22091.53798340 -.00000300  00000+0  00000+0 0  9991
2 30793   2.1223  92.5542 0009407 108.3655 324.8801  0.99080170 26782
SKYNET 5A               
1 30794U 07007B   22091.55535559 -.00000283  00000+0  00000+0 0  9995
2 30794   2.0145  88.5855 0003152 293.2753 103.1454  1.00270037 55286
ANIK F3                 
1 31102U 07009A   22091.61655244 -.00000014  00000+0  00000+0 0  9994
2 31102   0.0204 161.6984 0002301 216.6767 274.7978  1.00271963 31143
ASTRA 1L                
1 31306U 07016A   22091.29813355  .00000105  00000+0  00000+0 0  9991
2 31306   0.0537   5.1005 0004345 326.7808 344.2407  1.00270036 29599
GALAXY 17 (G-17)        
1 31307U 07016B   22091.49149613 -.00000188  00000+0  00000+0 0  9995
2 31307   0.0357  75.5420 0003069 303.8731 256.3413  1.00272598 54385
ZHONGXING-6B            
1 31800U 07031A   22091.53266309 -.00000375  00000+0  00000+0 0  9995
2 31800   0.0105 201.4136 0003610 170.5156 125.1997  1.00271689 54010
DIRECTV 10              
1 31862U 07032A   22091.57608653 -.00000117  00000+0  00000+0 0  9994
2 31862   0.0400  43.7064 0000156  74.6158 176.1773  1.00272248 53986
SPACEWAY 3              
1 32018U 07036A   22091.49348476 -.00000165  00000+0  00000+0 0  9990
2 32018   0.0536  40.2422 0000300  87.3799 144.8876  1.00271800 31135
BSAT-3A                 
1 32019U 07036B   22091.60338306 -.00000364  00000+0  00000+0 0  9996
2 32019   0.0307 164.8744 0000553 113.7578 238.3401  1.00269988 35109
OPTUS D2                
1 32252U 07044A   22091.53959998 -.00000197  00000+0  00000+0 0  9996
2 32252   0.0315 275.7376 0003602  92.4109 167.9678  1.00272838 53157
INTELSAT 11 (IS-11)     
1 32253U 07044B   22091.50109014 -.00000282  00000+0  00000+0 0  9995
2 32253   0.0140 131.2656 0001959 257.9749 297.9818  1.00273425 53076
WGS F1 (USA 195)        
1 32258U 07046A   22091.39545809  .00000027  00000+0  00000+0 0  9991
2 32258   0.0226 197.4837 0000254 311.0382 189.5688  1.00269402 36929
STAR ONE C1             
1 32293U 07056A   22091.61741257 -.00000122  00000+0  00000+0 0  9998
2 32293   0.7697  93.3307 0010653 187.4238 318.6139  0.99068047   153
SKYNET 5B               
1 32294U 07056B   22091.38452035  .00000129  00000+0  00000+0 0  9992
2 32294   1.3329  89.6804 0003990 281.3030 342.2833  1.00275477 52772
ASTRA 4A (SIRIUS 4)     
1 32299U 07057A   22091.39563170  .00000018  00000+0  00000+0 0  9999
2 32299   0.0446  58.6367 0002796 308.4889 329.8238  1.00270991 36250
HORIZONS-2              
1 32388U 07063B   22091.59285505 -.00000196  00000+0  00000+0 0  9998
2 32388   0.0166 212.1180 0002724 146.3524 129.7190  1.00270196 52400
THURAYA-3               
1 32404U 08001A   22091.38570056 -.00000314  00000+0  00000+0 0  9997
2 32404   4.0071  21.8775 0002161 355.2961  49.8866  1.00273117 52075
EXPRESS-AM33            
1 32478U 08003A   22091.34354865 -.00000103  00000+0  00000+0 0  9990
2 32478   0.8641  93.6935 0000125 312.2260 256.3121  1.00272229 38314
THOR 5                  
1 32487U 08006A   22091.36590205 -.00000023  00000+0  00000+0 0  9996
2 32487   0.0290 249.9955 0002384 128.4326 302.2244  1.00272245 51885
AMC-14                  
1 32708U 08011A   22091.03313233  .00000072  00000+0  00000+0 0  9999
2 32708  21.9584  39.1431 0044268 359.3080 180.8517  1.00275991 52735
DIRECTV 11              
1 32729U 08013A   22091.52992788 -.00000139  00000+0  00000+0 0  9991
2 32729   0.0049  99.6812 0000171 209.5289 332.2392  1.00270132 30178
ICO G1                  
1 32763U 08016A   22091.49648215 -.00000183  00000+0  00000+0 0  9990
2 32763   3.9605  25.0961 0002342 343.3876 267.2264  1.00271686 51123
VINASAT-1               
1 32767U 08018A   22091.58730108 -.00000342  00000+0  00000+0 0  9996
2 32767   0.0135 191.1505 0002079 219.5281 122.6007  1.00267231 51189
STAR ONE C2             
1 32768U 08018B   22091.51052247 -.00000290  00000+0  00000+0 0  9993
2 32768   0.0548  52.5414 0002819 332.2626 283.8069  1.00270553 51252
TIANLIAN 1-01           
1 32779U 08019A   22091.51696385 -.00000085  00000+0  00000+0 0  9995
2 32779   6.3650  74.5633 0005982 267.3006  70.7854  0.97413787   373
AMOS-3                  
1 32794U 08022A   22091.39424440 -.00000049  00000+0  00000+0 0  9993
2 32794   0.0192 244.3512 0002405 140.4396 302.7156  1.00271546 66921
GALAXY 18 (G-18)        
1 32951U 08024A   22091.61304961  .00000012  00000+0  00000+0 0  9999
2 32951   0.0020 170.2553 0002852 207.9319 269.4263  1.00272365 30433
CHINASAT 9 (ZX 9)       
1 33051U 08028A   22091.59840944 -.00000261  00000+0  00000+0 0  9995
2 33051   0.0149 236.9685 0004255 146.1319 114.4274  1.00274304 50625
SKYNET 5C               
1 33055U 08030A   22091.43428105 -.00000154  00000+0  00000+0 0  9997
2 33055   0.0645   8.7502 0003287  23.7178 295.7727  1.00271847 50535
TURKSAT 3A              
1 33056U 08030B   22091.59072691  .00000133  00000+0  00000+0 0  9996
2 33056   0.0595  93.7597 0004174 302.1040  48.6731  1.00272219 36938
INTELSAT 25 (IS-25)     
1 33153U 08034A   22091.47757516 -.00000237  00000+0  00000+0 0  9997
2 33153   0.0126 217.2238 0003029 160.9998 312.0023  1.00272162 50273
BADR-6                  
1 33154U 08034B   22091.51478339  .00000131  00000+0  00000+0 0  9998
2 33154   0.0737  54.2384 0006674 344.2045   2.6848  1.00272795 50338
ECHOSTAR 11             
1 33207U 08035A   22091.62343015 -.00000069  00000+0  00000+0 0  9993
2 33207   0.0381  81.2982 0002708 274.0822 308.9908  1.00271771 35811
SUPERBIRD-C2            
1 33274U 08038A   22091.58218542 -.00000264  00000+0  00000+0 0  9998
2 33274   0.0105 193.2039 0001565 205.3076 144.9225  1.00273522 90316
AMC-21                  
1 33275U 08038B   22091.61197531  .00000023  00000+0  00000+0 0  9999
2 33275   0.0467 291.8399 0002392  80.8239 272.6732  1.00272632 50070
INMARSAT 4-F3           
1 33278U 08039A   22091.57965170 -.00000151  00000+0  00000+0 0  9993
2 33278   3.2864  19.1569 0002438   2.8937 278.5257  1.00272286 31126
NIMIQ 4                 
1 33373U 08044A   22091.50127704 -.00000234  00000+0  00000+0 0  9993
2 33373   0.0167 148.1252 0002645 223.3195 276.8547  1.00271612 49563
GALAXY 19 (G-19)        
1 33376U 08045A   22091.58064956 -.00000152  00000+0  00000+0 0  9993
2 33376   0.0310 265.6873 0002746 105.9058 290.3275  1.00271217 49486
ASTRA 1M                
1 33436U 08057A   22091.29813355  .00000105  00000+0  00000+0 0  9993
2 33436   0.0326 114.9709 0002109 313.5857 247.5354  1.00270676 30302
CIEL-2                  
1 33453U 08063A   22091.60853939  .00000045  00000+0  00000+0 0  9999
2 33453   0.0248 139.1005 0002908 239.3340 261.7120  1.00272178 48713
EUTELSAT HOTBIRD 13C    
1 33459U 08065A   22091.39007729  .00000073  00000+0  00000+0 0  9992
2 33459   0.0636  44.0561 0004822 353.8834 305.1814  1.00273220 31925
EUTELSAT 48D            
1 33460U 08065B   22091.39979889 -.00000113  00000+0  00000+0 0  9995
2 33460   1.2680  93.4404 0003183 281.1669 306.5265  1.00272577 48535
FENGYUN 2E              
1 33463U 08066A   22091.45503896 -.00000209  00000+0  00000+0 0  9993
2 33463   5.7365  65.7312 0004774 355.0889  19.1207  1.00264411 48675
EXPRESS-AM44            
1 33595U 09007A   22091.29211550 -.00000103  00000+0  00000+0 0  9993
2 33595   0.0309 308.7797 0000771 142.7425 192.2450  1.00271645 48135
NSS-9                   
1 33749U 09008A   22091.61405994  .00000058  00000+0  00000+0 0  9996
2 33749   0.0455  52.5895 0002123 309.9821 231.4787  1.00272512 48112
EUTELSAT 33E            
1 33750U 09008B   22091.37896594  .00000141  00000+0  00000+0 0  9994
2 33750   0.0594   8.2017 0003936   0.6006 350.4098  1.00269899 48026
TELSTAR 11N             
1 34111U 09009A   22091.48295872 -.00000264  00000+0  00000+0 0  9998
2 34111   0.0222 194.2831 0001510 155.7580 336.0729  1.00268503 30811
EUTELSAT 10A            
1 34710U 09016A   22091.39007729  .00000054  00000+0  00000+0 0  9999
2 34710   0.0619 357.7787 0005389  10.3371 332.0296  1.00270154 25830
WGS F2 (USA 204)        
1 34713U 09017A   22091.52106309  .00000054  00000+0  00000+0 0  9992
2 34713   0.0199 180.5435 0000427  69.8401 184.5143  1.00271136 30196
SES-7 (PROTOSTAR 2)     
1 34941U 09027A   22091.52896872 -.00000359  00000+0  00000+0 0  9996
2 34941   0.0847  88.5860 0001122 240.1849 159.7468  1.00272151 47203
MEASAT-3A               
1 35362U 09032A   22091.59840944 -.00000255  00000+0  00000+0 0  9991
2 35362   0.0272 194.6710 0000957 101.0214 201.1572  1.00271906 46835
GOES 14                 
1 35491U 09033A   22091.57487358 -.00000105  00000+0  00000+0 0  9993
2 35491   0.1389  89.7104 0011766 133.9634  68.6770  1.00272184 46698
FM-5                    
1 35493U 09034A   22091.49245556 -.00000213  00000+0  00000+0 0  9999
2 35493   0.0201 220.7129 0000320 241.3429 178.9045  1.00269479 31222
TERRESTAR-1             
1 35496U 09035A   22091.62321466 -.00000067  00000+0  00000+0 0  9990
2 35496   3.0966  36.9210 0002843 332.3104 294.0839  1.00271487 46710
ASIASAT 5               
1 35696U 09042A   22091.54424406 -.00000321  00000+0  00000+0 0  9992
2 35696   0.0195 233.0089 0001480 106.5905 146.6982  1.00270995 46278
JCSAT-12 (JCSAT-RA)     
1 35755U 09044A   22091.58730108 -.00000341  00000+0  00000+0 0  9995
2 35755   0.0220 234.0185 0001467  82.7107 216.6632  1.00272535 46198
OPTUS D3                
1 35756U 09044B   22091.59130828 -.00000161  00000+0  00000+0 0  9990
2 35756   0.0623  32.1798 0004314 336.3113 190.2970  1.00272215 46144
NIMIQ 5                 
1 35873U 09050A   22091.50667653 -.00000270  00000+0  00000+0 0  9990
2 35873   0.0437  97.8598 0002966 291.3729 270.2850  1.00273576 45930
